MEAN_MOTION;ECCENTRICITY;INCLINATION;RA_OF_ASC_NODE;ARG_OF_PERICENTER;MEAN_ANOMALY;BSTAR;MEAN_MOTION_DOT;MEAN_MOTION_DDOT;TYPE
14.34221391;0.0002292;86.3926;84.2936;52.6432;307.4972;1.922E-5;7.4E-7;0;Iridium
14.34221449;0.0002243;86.3927;84.0308;52.2881;307.8518;1.9527E-5;7.4E-7;0;Iridium
14.34221604;0.0002168;86.3927;83.6221;51.7766;308.3624;2.2567E-5;8.3E-7;0;Iridium
14.34221677;0.0002138;86.3927;83.4469;51.5667;308.572;2.364E-5;8.6E-7;0;Iridium
14.34221726;0.0002099;86.3928;83.2426;51.3206;308.8177;2.3365E-5;8.5E-7;0;Iridium
14.34221751;0.0002097;86.3928;83.2134;51.1808;308.9575;2.364E-5;8.6E-7;0;Iridium
14.34221847;0.0002017;86.3928;82.8046;50.7866;309.3509;2.1283E-5;7.9E-7;0;Iridium
14.34221847;0.0002017;86.3928;82.8046;50.7866;309.3509;2.1283E-5;7.9E-7;0;Iridium
14.34221849;0.0002013;86.3928;82.7754;50.7114;309.426;2.0855E-5;7.8E-7;0;Iridium
14.34221847;0.0002009;86.3928;82.7462;50.678;309.4594;2.0449E-5;7.7E-7;0;Iridium
14.34221847;0.0002009;86.3928;82.7462;50.678;309.4594;2.0449E-5;7.7E-7;0;Iridium
14.34221995;0.0001891;86.393;82.1331;50.1958;309.9404;1.6302E-5;6.5E-7;0;Iridium
14.34221991;0.0001868;86.393;82.0164;50.1392;309.9967;1.5131E-5;6.2E-7;0;Iridium
14.34222035;0.0001825;86.393;81.7828;49.9669;310.1687;1.3347E-5;5.7E-7;0;Iridium
14.34222065;0.000178;86.3931;81.5493;49.8342;310.3009;1.1552E-5;5.2E-7;0;Iridium
14.34222065;0.000178;86.3931;81.5493;49.8342;310.3009;1.1552E-5;5.2E-7;0;Iridium
14.3422211;0.000175;86.3931;81.3741;49.7729;310.362;1.1822E-5;5.3E-7;0;Iridium
14.34222193;0.0001667;86.3931;80.9362;49.6177;310.5164;1.0843E-5;5.0E-7;0;Iridium
14.34222284;0.0001621;86.3932;80.6735;49.5721;310.5616;1.3045E-5;5.6E-7;0;Iridium
14.3422232;0.0001605;86.3932;80.5567;49.4556;310.6779;1.4404E-5;6.0E-7;0;Iridium
14.34222368;0.0001554;86.3933;80.294;49.6418;310.4913;1.4354E-5;6.0E-7;0;Iridium
14.34222397;0.0001525;86.3934;80.1188;49.8112;310.3217;1.523E-5;6.2E-7;0;Iridium
14.34222404;0.0001474;86.3934;79.8561;50.0009;310.1316;1.2567E-5;5.5E-7;0;Iridium
14.34222404;0.0001474;86.3934;79.8561;50.0009;310.1316;1.2567E-5;5.5E-7;0;Iridium
14.34222447;0.0001442;86.3934;79.6809;50.1995;309.9327;1.3904E-5;5.9E-7;0;Iridium
14.3422253;0.0001396;86.3935;79.4474;50.5671;309.5648;1.7741E-5;6.9E-7;0;Iridium
14.34222534;0.0001392;86.3935;79.4182;50.6176;309.5143;1.809E-5;7.0E-7;0;Iridium
14.34222597;0.0001365;86.3935;79.2723;50.8106;309.3211;2.1039E-5;7.9E-7;0;Iridium
14.34222712;0.0001315;86.3936;79.0095;51.4253;308.7061;2.5337E-5;9.1E-7;0;Iridium
14.34222782;0.0001291;86.3936;78.8636;51.8608;308.2704;2.8185E-5;9.9E-7;0;Iridium
14.34222876;0.0001242;86.3937;78.6009;52.7411;307.3898;2.9145E-5;1.01E-6;0;Iridium
14.34222885;0.0001239;86.3937;78.5717;52.8533;307.2776;2.9509E-5;1.02E-6;0;Iridium
14.34222922;0.0001214;86.3937;78.4258;53.3603;306.7704;2.724E-5;9.6E-7;0;Iridium
14.3422299;0.0001174;86.3938;78.1923;54.0611;306.0694;2.7094E-5;9.6E-7;0;Iridium
14.34223032;0.0001145;86.3938;78.0172;54.7933;305.337;2.5664E-5;9.2E-7;0;Iridium
14.34223122;0.0001102;86.3939;77.7545;56.117;304.0131;2.543E-5;9.1E-7;0;Iridium
14.34223152;0.0001081;86.3939;77.6086;56.8844;303.2455;2.3732E-5;8.6E-7;0;Iridium
14.34223219;0.0001043;86.394;77.3751;58.4754;301.6544;2.2999E-5;8.4E-7;0;Iridium
14.34223267;0.0001018;86.394;77.1709;59.8067;300.323;2.1028E-5;7.9E-7;0;Iridium
14.34223386;9.87E-5;86.3941;76.9374;61.6642;298.4653;2.3854E-5;8.7E-7;0;Iridium
14.34223386;9.87E-5;86.3941;76.9374;61.6642;298.4653;2.3854E-5;8.7E-7;0;Iridium
14.34223451;9.67E-5;86.3942;76.7623;62.8;297.3294;2.3026E-5;8.4E-7;0;Iridium
14.34223579;9.34E-5;86.3943;76.4996;65.12;295.0093;2.5591E-5;9.1E-7;0;Iridium
14.34223641;9.19E-5;86.3944;76.3537;66.1793;293.9499;2.5319E-5;9.1E-7;0;Iridium
14.34223744;8.88E-5;86.3945;76.0911;68.7521;291.3769;2.5259E-5;9.1E-7;0;Iridium
14.34223764;8.83E-5;86.3945;76.0036;69.656;290.473;2.4904E-5;9.0E-7;0;Iridium
14.342112;9.25E-5;86.3947;75.6826;74.5406;285.5892;2.4425E-5;8.8E-7;0;Iridium
14.342112;9.25E-5;86.3947;75.6826;74.5406;285.5892;2.4425E-5;8.8E-7;0;Iridium
14.3421137;9.1E-5;86.3946;75.6535;75.2678;284.8618;2.4261E-5;8.8E-7;0;Iridium
14.34211539;9.01E-5;86.3947;75.5076;76.738;283.3916;5.1191E-5;1.63E-6;0;Iridium
14.34211511;8.9E-5;86.3948;75.2449;79.6338;280.4958;1.3046E-5;5.6E-7;0;Iridium
14.34211572;8.82E-5;86.3949;75.099;81.3205;278.8091;1.629E-5;6.5E-7;0;Iridium
14.34211569;8.81E-5;86.3949;75.0699;81.6666;278.463;1.4911E-5;6.2E-7;0;Iridium
14.34211691;8.67E-5;86.3951;74.6614;86.4579;273.6716;1.7819E-5;7.0E-7;0;Iridium
14.34211685;8.67E-5;86.3951;74.6322;86.8426;273.2869;1.6985E-5;6.7E-7;0;Iridium
14.3421183;8.63E-5;86.3952;74.4571;88.9599;271.1696;2.4878E-5;8.9E-7;0;Iridium
14.34211927;8.69E-5;86.3952;74.2529;91.4029;268.7266;2.6613E-5;9.4E-7;0;Iridium
14.34211967;8.71E-5;86.3953;74.0487;93.8562;266.2734;2.5914E-5;9.2E-7;0;Iridium
14.34212077;8.79E-5;86.3954;73.8445;96.0097;264.1199;2.8433E-5;9.9E-7;0;Iridium
14.34212175;8.87E-5;86.3955;73.6111;98.6839;261.4458;3.0294E-5;1.05E-6;0;Iridium
14.34212175;8.87E-5;86.3955;73.6111;98.6839;261.4458;3.0294E-5;1.05E-6;0;Iridium
14.3421224;9.01E-5;86.3955;73.4069;100.9236;259.2062;3.0131E-5;1.04E-6;0;Iridium
14.34212306;9.11E-5;86.3956;73.2027;103.1303;256.9995;3.0585E-5;1.05E-6;0;Iridium
14.34212378;9.32E-5;86.3957;72.9985;105.2528;254.8771;3.0701E-5;1.06E-6;0;Iridium
14.34212447;9.51E-5;86.3958;72.7943;107.1663;252.9637;3.1198E-5;1.07E-6;0;Iridium
14.34212531;9.73E-5;86.3958;72.5901;108.6446;251.4855;3.0992E-5;1.07E-6;0;Iridium
14.34212584;0.0001003;86.396;72.3568;110.955;249.1754;2.9649E-5;1.03E-6;0;Iridium
14.34212584;0.0001003;86.396;72.3568;110.955;249.1754;2.9649E-5;1.03E-6;0;Iridium
14.34212642;0.0001029;86.3961;72.1527;112.372;247.7585;2.7928E-5;9.8E-7;0;Iridium
14.34212691;0.0001057;86.3961;71.9485;113.8213;246.3093;2.5883E-5;9.2E-7;0;Iridium
14.34212761;0.0001084;86.3962;71.7443;115.0858;245.045;2.4861E-5;8.9E-7;0;Iridium
14.34212844;0.0001117;86.3962;71.5401;116.4839;243.6471;2.4582E-5;8.9E-7;0;Iridium
14.34212917;0.0001147;86.3963;71.3359;117.4795;242.6518;2.3436E-5;8.5E-7;0;Iridium
14.3421299;0.0001184;86.3964;71.0734;118.7163;241.4152;2.1767E-5;8.1E-7;0;Iridium
14.3421299;0.0001184;86.3964;71.0734;118.7163;241.4152;2.1767E-5;8.1E-7;0;Iridium
14.34213051;0.0001201;86.3965;70.9276;119.0844;241.0472;2.1143E-5;7.9E-7;0;Iridium
14.34213179;0.0001267;86.3967;70.4901;120.6464;239.4857;1.8773E-5;7.2E-7;0;Iridium
14.34213267;0.0001304;86.3968;70.286;121.5239;238.6084;1.9344E-5;7.4E-7;0;Iridium
14.34213379;0.0001379;86.397;69.8777;122.8877;237.2451;1.8693E-5;7.2E-7;0;Iridium
14.34213413;0.0001421;86.3971;69.6445;123.175;236.9582;1.6753E-5;6.7E-7;0;Iridium
14.34213434;0.0001449;86.3972;69.4695;123.4048;236.7286;1.6512E-5;6.6E-7;0;Iridium
14.34213502;0.0001491;86.3973;69.2362;123.6654;236.4685;1.7118E-5;6.8E-7;0;Iridium
14.34213543;0.0001525;86.3974;69.0321;123.8136;236.3205;1.744E-5;6.9E-7;0;Iridium
14.34213543;0.0001525;86.3974;69.0321;123.8136;236.3205;1.744E-5;6.9E-7;0;Iridium
14.34213581;0.0001561;86.3974;68.828;124.0516;236.0828;1.7442E-5;6.9E-7;0;Iridium
14.34213686;0.0001601;86.3975;68.6239;124.4321;235.7026;2.0942E-5;7.8E-7;0;Iridium
14.34213739;0.0001643;86.3975;68.4197;124.5425;235.5926;2.1498E-5;8.0E-7;0;Iridium
14.34213845;0.0001681;86.3976;68.2156;124.6962;235.4392;2.5122E-5;9.0E-7;0;Iridium
14.34213845;0.0001681;86.3976;68.2156;124.6962;235.4392;2.5122E-5;9.0E-7;0;Iridium
14.34213883;0.0001728;86.3977;67.9823;124.6398;235.4961;2.3974E-5;8.7E-7;0;Iridium
14.34213983;0.0001753;86.3977;67.8074;124.5777;235.5584;2.7565E-5;9.7E-7;0;Iridium
14.34214028;0.0001806;86.3978;67.5742;124.6761;235.4605;2.6157E-5;9.3E-7;0;Iridium
14.34214028;0.0001806;86.3978;67.5742;124.6761;235.4605;2.6157E-5;9.3E-7;0;Iridium
14.34214078;0.0001838;86.3979;67.3702;124.729;235.4079;2.6158E-5;9.3E-7;0;Iridium
14.34214114;0.0001879;86.398;67.1661;124.5254;235.612;2.4681E-5;8.9E-7;0;Iridium
14.3421418;0.0001917;86.3981;66.962;124.5394;235.5983;2.4749E-5;8.9E-7;0;Iridium
14.34214247;0.000197;86.3981;66.7288;124.353;235.7853;2.3861E-5;8.7E-7;0;Iridium
14.34214325;0.0002012;86.3982;66.4956;124.1189;236.0198;2.4051E-5;8.7E-7;0;Iridium
14.34214325;0.0002012;86.3982;66.4956;124.1189;236.0198;2.4051E-5;8.7E-7;0;Iridium
14.34214364;0.0002046;86.3983;66.3207;123.877;236.262;2.2101E-5;8.2E-7;0;Iridium
14.34214448;0.0002092;86.3983;66.0583;123.4573;236.6823;2.2496E-5;8.3E-7;0;Iridium
14.34214448;0.0002092;86.3983;66.0583;123.4573;236.6823;2.2496E-5;8.3E-7;0;Iridium
14.34214474;0.0002121;86.3984;65.9125;123.3717;236.7681;2.0143E-5;7.6E-7;0;Iridium
14.34214607;0.000217;86.3985;65.5337;122.5809;237.5596;1.9901E-5;7.6E-7;0;Iridium
14.34214607;0.0002179;86.3985;65.4754;122.4373;237.7034;1.8606E-5;7.2E-7;0;Iridium
14.34214701;0.00022;86.3986;65.3005;122.0515;238.0894;2.0306E-5;7.7E-7;0;Iridium
14.34214724;0.0002241;86.3987;65.0673;121.5429;238.5986;1.7154E-5;6.8E-7;0;Iridium
14.3421479;0.0002262;86.3988;64.8924;121.2067;238.9351;1.7918E-5;7.0E-7;0;Iridium
14.3421482;0.0002297;86.3989;64.6593;120.6476;239.4946;1.5697E-5;6.4E-7;0;Iridium
14.342149;0.0002329;86.3989;64.4552;120.3732;239.7695;1.6981E-5;6.7E-7;0;Iridium
14.342149;0.0002329;86.3989;64.4552;120.3732;239.7695;1.6981E-5;6.7E-7;0;Iridium
14.34214898;0.0002374;86.399;64.2221;119.899;240.2442;1.3865E-5;5.9E-7;0;Iridium
14.34215014;0.0002408;86.3991;64.0471;119.773;240.3706;1.7266E-5;6.8E-7;0;Iridium
14.34215064;0.0002468;86.3991;63.8139;119.5671;240.5771;1.69E-5;6.7E-7;0;Iridium
14.3421519;0.0002486;86.3992;63.6099;118.9352;241.2093;2.0951E-5;7.8E-7;0;Iridium
14.3421519;0.0002486;86.3992;63.6099;118.9352;241.2093;2.0951E-5;7.8E-7;0;Iridium
14.3421519;0.0002486;86.3992;63.6099;118.9352;241.2093;2.0951E-5;7.8E-7;0;Iridium
14.34215222;0.0002532;86.3992;63.4059;118.514;241.6311;2.0151E-5;7.6E-7;0;Iridium
14.34215302;0.0002565;86.3993;63.2019;117.8781;242.2674;2.2433E-5;8.3E-7;0;Iridium
14.34215369;0.0002596;86.3993;62.9979;117.3199;242.8261;2.335E-5;8.5E-7;0;Iridium
14.34215403;0.0002627;86.3994;62.794;116.928;243.2184;2.3201E-5;8.5E-7;0;Iridium
